{
  "type": "FeatureCollection",
  "features": [
    {
      "type": "Feature",
      "properties": {
        "norad_id": 41859,
        "name": "GSAT0207 (GALILEO 15)",
        "group": "gnss",
        "lat": 23.867657741643235,
        "lon": -91.30869089927859,
        "alt_km": 23225.36101871074,
        "timestamp": "2025-12-03T15:48:03.316158+00:00",
        "meta_object_name": "GSAT0207 (GALILEO 15)",
        "meta_object_id": "2016-069A",
        "meta_epoch": "2025-11-30T11:31:32.297952",
        "meta_mean_motion": 1.70474248,
        "meta_eccentricity": 0.00020596,
        "meta_inclination": 55.375,
        "meta_ra_of_asc_node": 106.5899,
        "meta_arg_of_pericenter": 325.7449,
        "meta_mean_anomaly": 34.2162,
        "meta_ephemeris_type": 0,
        "meta_classification_type": "U",
        "meta_norad_cat_id": 41859,
        "meta_element_set_no": 999,
        "meta_rev_at_epoch": 5601,
        "meta_bstar": 0,
        "meta_mean_motion_dot": 4.7e-07,
        "meta_mean_motion_ddot": 0,
        "tle_line1": "1 41859U 16069A   25334.48023493  .00000047  00000+0  00000+0 0  9998",
        "tle_line2": "2 41859  55.3750 106.5899 0002059 325.7449  34.2162  1.70474248 56019"
      },
      "geometry": {
        "type": "Point",
        "coordinates": [
          -91.30869089927859,
          23.867657741643235
        ]
      }
    },
    {
      "type": "Feature",
      "properties": {
        "norad_id": 41860,
        "name": "GSAT0212 (GALILEO 16)",
        "group": "gnss",
        "lat": -45.658836075463846,
        "lon": -28.56105976390471,
        "alt_km": 23233.330961961907,
        "timestamp": "2025-12-03T15:48:03.316168+00:00",
        "meta_object_name": "GSAT0212 (GALILEO 16)",
        "meta_object_id": "2016-069B",
        "meta_epoch": "2025-12-02T16:19:30.905184",
        "meta_mean_motion": 1.70474418,
        "meta_eccentricity": 0.00022458,
        "meta_inclination": 55.3738,
        "meta_ra_of_asc_node": 106.5243,
        "meta_arg_of_pericenter": 34.2432,
        "meta_mean_anomaly": 325.7313,
        "meta_ephemeris_type": 0,
        "meta_classification_type": "U",
        "meta_norad_cat_id": 41860,
        "meta_element_set_no": 999,
        "meta_rev_at_epoch": 5630,
        "meta_bstar": 0,
        "meta_mean_motion_dot": 2.7e-07,
        "meta_mean_motion_ddot": 0,
        "tle_line1": "1 41860U 16069B   25336.68021881  .00000027  00000+0  00000+0 0  9991",
        "tle_line2": "2 41860  55.3738 106.5243 0002245  34.2432 325.7313  1.70474418 56308"
      },
      "geometry": {
        "type": "Point",
        "coordinates": [
          -28.56105976390471,
          -45.658836075463846
        ]
      }
    },
    {
      "type": "Feature",
      "properties": {
        "norad_id": 41861,
        "name": "GSAT0213 (GALILEO 17)",
        "group": "gnss",
        "lat": 12.07984789535675,
        "lon": 114.98242877888181,
        "alt_km": 23220.838988555333,
        "timestamp": "2025-12-03T15:48:03.316178+00:00",
        "meta_object_name": "GSAT0213 (GALILEO 17)",
        "meta_object_id": "2016-069C",
        "meta_epoch": "2025-12-01T20:59:28.954752",
        "meta_mean_motion": 1.70474717,
        "meta_eccentricity": 0.00020626,
        "meta_inclination": 55.3756,
        "meta_ra_of_asc_node": 106.5542,
        "meta_arg_of_pericenter": 284.0381,
        "meta_mean_anomaly": 75.9044,
        "meta_ephemeris_type": 0,
        "meta_classification_type": "U",
        "meta_norad_cat_id": 41861,
        "meta_element_set_no": 999,
        "meta_rev_at_epoch": 5615,
        "meta_bstar": 0,
        "meta_mean_motion_dot": 3.5e-07,
        "meta_mean_motion_ddot": 0,
        "tle_line1": "1 41861U 16069C   25335.87464068  .00000035  00000+0  00000+0 0  9999",
        "tle_line2": "2 41861  55.3756 106.5542 0002062 284.0381  75.9044  1.70474717 56156"
      },
      "geometry": {
        "type": "Point",
        "coordinates": [
          114.98242877888181,
          12.07984789535675
        ]
      }
    },
    {
      "type": "Feature",
      "properties": {
        "norad_id": 41862,
        "name": "GSAT0214 (GALILEO 18)",
        "group": "gnss",
        "lat": -52.5911951723344,
        "lon": 41.93216442520253,
        "alt_km": 23224.603715033423,
        "timestamp": "2025-12-03T15:48:03.316188+00:00",
        "meta_object_name": "GSAT0214 (GALILEO 18)",
        "meta_object_id": "2016-069D",
        "meta_epoch": "2025-12-02T14:34:22.700352",
        "meta_mean_motion": 1.70474512,
        "meta_eccentricity": 0.0001109,
        "meta_inclination": 55.3745,
        "meta_ra_of_asc_node": 106.5268,
        "meta_arg_of_pericenter": 291.2976,
        "meta_mean_anomaly": 68.6511,
        "meta_ephemeris_type": 0,
        "meta_classification_type": "U",
        "meta_norad_cat_id": 41862,
        "meta_element_set_no": 999,
        "meta_rev_at_epoch": 5629,
        "meta_bstar": 0,
        "meta_mean_motion_dot": 2.8e-07,
        "meta_mean_motion_ddot": 0,
        "tle_line1": "1 41862U 16069D   25336.60720718  .00000028  00000+0  00000+0 0  9991",
        "tle_line2": "2 41862  55.3745 106.5268 0001109 291.2976  68.6511  1.70474512 56297"
      },
      "geometry": {
        "type": "Point",
        "coordinates": [
          41.93216442520253,
          -52.5911951723344
        ]
      }
    },
    {
      "type": "Feature",
      "properties": {
        "norad_id": 42709,
        "name": "SES-15 (WAAS/PRN 133)",
        "group": "gnss",
        "lat": -0.01934290853304696,
        "lon": -179.46528724812256,
        "alt_km": 35786.45710089432,
        "timestamp": "2025-12-03T15:48:03.316199+00:00",
        "meta_object_name": "SES-15 (WAAS/PRN 133)",
        "meta_object_id": "2017-026A",
        "meta_epoch": "2025-12-02T12:16:38.557632",
        "meta_mean_motion": 1.00268611,
        "meta_eccentricity": 3.415e-05,
        "meta_inclination": 0.02,
        "meta_ra_of_asc_node": 343.4979,
        "meta_arg_of_pericenter": 269.9972,
        "meta_mean_anomaly": 233.0968,
        "meta_ephemeris_type": 0,
        "meta_classification_type": "U",
        "meta_norad_cat_id": 42709,
        "meta_element_set_no": 999,
        "meta_rev_at_epoch": 546,
        "meta_bstar": 0,
        "meta_mean_motion_dot": 8.1e-07,
        "meta_mean_motion_ddot": 0,
        "tle_line1": "1 42709U 17026A   25336.51155738  .00000081  00000+0  00000+0 0  9999",
        "tle_line2": "2 42709   0.0200 343.4979 0000341 269.9972 233.0968  1.00268611  5468"
      },
      "geometry": {
        "type": "Point",
        "coordinates": [
          -179.46528724812256,
          -0.01934290853304696
        ]
      }
    },
    {
      "type": "Feature",
      "properties": {
        "norad_id": 42738,
        "name": "QZS-2 (QZSS/PRN 194)",
        "group": "gnss",
        "lat": -10.788591830746466,
        "lon": 79.25034103014664,
        "alt_km": 34608.790882796944,
        "timestamp": "2025-12-03T15:48:03.316209+00:00",
        "meta_object_name": "QZS-2 (QZSS/PRN 194)",
        "meta_object_id": "2017-028A",
        "meta_epoch": "2025-12-02T14:25:21.359424",
        "meta_mean_motion": 1.0028572,
        "meta_eccentricity": 0.075922,
        "meta_inclination": 39.7306,
        "meta_ra_of_asc_node": 246.0318,
        "meta_arg_of_pericenter": 269.3692,
        "meta_mean_anomaly": 274.0368,
        "meta_ephemeris_type": 0,
        "meta_classification_type": "U",
        "meta_norad_cat_id": 42738,
        "meta_element_set_no": 999,
        "meta_rev_at_epoch": 565,
        "meta_bstar": 0,
        "meta_mean_motion_dot": -1.54e-06,
        "meta_mean_motion_ddot": 0,
        "tle_line1": "1 42738U 17028A   25336.60094166 -.00000154  00000+0  00000+0 0  9992",
        "tle_line2": "2 42738  39.7306 246.0318 0759220 269.3692 274.0368  1.00285720  5651"
      },
      "geometry": {
        "type": "Point",
        "coordinates": [
          79.25034103014664,
          -10.788591830746466
        ]
      }
    },
    {
      "type": "Feature",
      "properties": {
        "norad_id": 42917,
        "name": "QZS-3 (QZSS/PRN 199)",
        "group": "gnss",
        "lat": -0.016661283695976678,
        "lon": 76.7082564860564,
        "alt_km": 35793.99064743543,
        "timestamp": "2025-12-03T15:48:03.316221+00:00",
        "meta_object_name": "QZS-3 (QZSS/PRN 199)",
        "meta_object_id": "2017-048A",
        "meta_epoch": "2025-12-03T07:30:41.610240",
        "meta_mean_motion": 1.00276062,
        "meta_eccentricity": 0.00021378,
        "meta_inclination": 0.074,
        "meta_ra_of_asc_node": 222.4123,
        "meta_arg_of_pericenter": 32.5037,
        "meta_mean_anomaly": 57.1318,
        "meta_ephemeris_type": 0,
        "meta_classification_type": "U",
        "meta_norad_cat_id": 42917,
        "meta_element_set_no": 999,
        "meta_rev_at_epoch": 3029,
        "meta_bstar": 0,
        "meta_mean_motion_dot": -3.29e-06,
        "meta_mean_motion_ddot": 0,
        "tle_line1": "1 42917U 17048A   25337.31298160 -.00000329  00000+0  00000+0 0  9996",
        "tle_line2": "2 42917   0.0740 222.4123 0002137  32.5037  57.1318  1.00276062 30298"
      },
      "geometry": {
        "type": "Point",
        "coordinates": [
          76.7082564860564,
          -0.016661283695976678
        ]
      }
    }
  ]
}